{
  "type": "FeatureCollection",
  "features": [
    {
      "type": "Feature",
      "properties": {
        "norad_id": 43262,
        "name": "GAOFEN-1 04",
        "group": "resource",
        "lat": -80.79459065097394,
        "lon": 172.55217713856914,
        "alt_km": 648.3883911669591,
        "timestamp": "2025-12-21T22:41:41.105232+00:00",
        "meta_object_name": "GAOFEN-1 04",
        "meta_object_id": "2018-031D",
        "meta_epoch": "2025-12-21T14:59:21.384384",
        "meta_mean_motion": 14.76423302,
        "meta_eccentricity": 6.993e-05,
        "meta_inclination": 98.08,
        "meta_ra_of_asc_node": 53.4638,
        "meta_arg_of_pericenter": 52.352,
        "meta_mean_anomaly": 307.7753,
        "meta_ephemeris_type": 0,
        "meta_classification_type": "U",
        "meta_norad_cat_id": 43262,
        "meta_element_set_no": 999,
        "meta_rev_at_epoch": 41648,
        "meta_bstar": 0.00010907772,
        "meta_mean_motion_dot": 7.07e-06,
        "meta_mean_motion_ddot": 0,
        "tle_line1": "1 43262U 18031D   25355.62455306  .00000707  00000+0  10908-3 0  9995",
        "tle_line2": "2 43262  98.0800  53.4638 0000699  52.3520 307.7753 14.76423302416481"
      },
      "geometry": {
        "type": "Point",
        "coordinates": [
          172.55217713856914,
          -80.79459065097394
        ]
      }
    },
    {
      "type": "Feature",
      "properties": {
        "norad_id": 43437,
        "name": "SENTINEL-3B",
        "group": "resource",
        "lat": -46.832321745094006,
        "lon": -128.31424060632574,
        "alt_km": 810.2478951062449,
        "timestamp": "2025-12-21T22:41:41.105242+00:00",
        "meta_object_name": "SENTINEL-3B",
        "meta_object_id": "2018-039A",
        "meta_epoch": "2025-12-21T11:32:00.042720",
        "meta_mean_motion": 14.26737191,
        "meta_eccentricity": 0.00016222,
        "meta_inclination": 98.6256,
        "meta_ra_of_asc_node": 60.5402,
        "meta_arg_of_pericenter": 93.0561,
        "meta_mean_anomaly": 267.0805,
        "meta_ephemeris_type": 0,
        "meta_classification_type": "U",
        "meta_norad_cat_id": 43437,
        "meta_element_set_no": 999,
        "meta_rev_at_epoch": 39878,
        "meta_bstar": 6.8744166e-05,
        "meta_mean_motion_dot": 1.23e-06,
        "meta_mean_motion_ddot": 0,
        "tle_line1": "1 43437U 18039A   25355.48055605  .00000123  00000+0  68744-4 0  9993",
        "tle_line2": "2 43437  98.6256  60.5402 0001622  93.0561 267.0805 14.26737191398785"
      },
      "geometry": {
        "type": "Point",
        "coordinates": [
          -128.31424060632574,
          -46.832321745094006
        ]
      }
    },
    {
      "type": "Feature",
      "properties": {
        "norad_id": 43461,
        "name": "GAOFEN-5 01",
        "group": "resource",
        "lat": -69.3461688602445,
        "lon": 115.89488250549861,
        "alt_km": 698.762709818001,
        "timestamp": "2025-12-21T22:41:41.105252+00:00",
        "meta_object_name": "GAOFEN-5 01",
        "meta_object_id": "2018-043A",
        "meta_epoch": "2025-12-21T11:40:57.439488",
        "meta_mean_motion": 14.60418612,
        "meta_eccentricity": 5.099e-05,
        "meta_inclination": 98.4339,
        "meta_ra_of_asc_node": 318.6072,
        "meta_arg_of_pericenter": 280.4248,
        "meta_mean_anomaly": 79.6894,
        "meta_ephemeris_type": 0,
        "meta_classification_type": "U",
        "meta_norad_cat_id": 43461,
        "meta_element_set_no": 999,
        "meta_rev_at_epoch": 40575,
        "meta_bstar": 8.5207627e-05,
        "meta_mean_motion_dot": 3.64e-06,
        "meta_mean_motion_ddot": 0,
        "tle_line1": "1 43461U 18043A   25355.48677592  .00000364  00000+0  85208-4 0  9991",
        "tle_line2": "2 43461  98.4339 318.6072 0000509 280.4248  79.6894 14.60418612405752"
      },
      "geometry": {
        "type": "Point",
        "coordinates": [
          115.89488250549861,
          -69.3461688602445
        ]
      }
    },
    {
      "type": "Feature",
      "properties": {
        "norad_id": 43484,
        "name": "GAOFEN-6",
        "group": "resource",
        "lat": 59.882262370585906,
        "lon": 46.230794250844006,
        "alt_km": 626.1667278573432,
        "timestamp": "2025-12-21T22:41:41.105262+00:00",
        "meta_object_name": "GAOFEN-6",
        "meta_object_id": "2018-048A",
        "meta_epoch": "2025-12-21T14:17:20.875200",
        "meta_mean_motion": 14.7657996,
        "meta_eccentricity": 0.00128003,
        "meta_inclination": 97.8026,
        "meta_ra_of_asc_node": 59.5652,
        "meta_arg_of_pericenter": 37.4874,
        "meta_mean_anomaly": 322.7227,
        "meta_ephemeris_type": 0,
        "meta_classification_type": "U",
        "meta_norad_cat_id": 43484,
        "meta_element_set_no": 999,
        "meta_rev_at_epoch": 40718,
        "meta_bstar": 7.0383407e-05,
        "meta_mean_motion_dot": 4.42e-06,
        "meta_mean_motion_ddot": 0,
        "tle_line1": "1 43484U 18048A   25355.59538050  .00000442  00000+0  70383-4 0  9993",
        "tle_line2": "2 43484  97.8026  59.5652 0012800  37.4874 322.7227 14.76579960407182"
      },
      "geometry": {
        "type": "Point",
        "coordinates": [
          46.230794250844006,
          59.882262370585906
        ]
      }
    },
    {
      "type": "Feature",
      "properties": {
        "norad_id": 43585,
        "name": "GAOFEN-11 01",
        "group": "resource",
        "lat": 63.924959444190904,
        "lon": -106.32017352858281,
        "alt_km": 414.4362565772617,
        "timestamp": "2025-12-21T22:41:41.105273+00:00",
        "meta_object_name": "GAOFEN-11 01",
        "meta_object_id": "2018-063A",
        "meta_epoch": "2025-12-21T14:26:59.055360",
        "meta_mean_motion": 15.49452725,
        "meta_eccentricity": 0.00038723,
        "meta_inclination": 97.1552,
        "meta_ra_of_asc_node": 58.4638,
        "meta_arg_of_pericenter": 268.5706,
        "meta_mean_anomaly": 91.5102,
        "meta_ephemeris_type": 0,
        "meta_classification_type": "U",
        "meta_norad_cat_id": 43585,
        "meta_element_set_no": 999,
        "meta_rev_at_epoch": 41279,
        "meta_bstar": 0.00024629318,
        "meta_mean_motion_dot": 0.00013457,
        "meta_mean_motion_ddot": 0,
        "tle_line1": "1 43585U 18063A   25355.60207240  .00013457  00000+0  24629-3 0  9999",
        "tle_line2": "2 43585  97.1552  58.4638 0003872 268.5706  91.5102 15.49452725412799"
      },
      "geometry": {
        "type": "Point",
        "coordinates": [
          -106.32017352858281,
          63.924959444190904
        ]
      }
    },
    {
      "type": "Feature",
      "properties": {
        "norad_id": 43613,
        "name": "ICESAT-2",
        "group": "resource",
        "lat": -51.52562837295246,
        "lon": 60.69580201911753,
        "alt_km": 488.8962445940133,
        "timestamp": "2025-12-21T22:41:41.105283+00:00",
        "meta_object_name": "ICESAT-2",
        "meta_object_id": "2018-070A",
        "meta_epoch": "2025-12-21T12:15:21.469824",
        "meta_mean_motion": 15.2825061,
        "meta_eccentricity": 0.00029505,
        "meta_inclination": 92.0044,
        "meta_ra_of_asc_node": 243.1043,
        "meta_arg_of_pericenter": 120.3372,
        "meta_mean_anomaly": 239.8169,
        "meta_ephemeris_type": 0,
        "meta_classification_type": "U",
        "meta_norad_cat_id": 43613,
        "meta_element_set_no": 999,
        "meta_rev_at_epoch": 40532,
        "meta_bstar": 0.00035145253,
        "meta_mean_motion_dot": 9.672e-05,
        "meta_mean_motion_ddot": 0,
        "tle_line1": "1 43613U 18070A   25355.51066516  .00009672  00000+0  35145-3 0  9997",
        "tle_line2": "2 43613  92.0044 243.1043 0002950 120.3372 239.8169 15.28250610405321"
      },
      "geometry": {
        "type": "Point",
        "coordinates": [
          60.69580201911753,
          -51.52562837295246
        ]
      }
    },
    {
      "type": "Feature",
      "properties": {
        "norad_id": 43719,
        "name": "HYSIS",
        "group": "resource",
        "lat": 14.48753397138151,
        "lon": -119.03624656674359,
        "alt_km": 634.7925226898988,
        "timestamp": "2025-12-21T22:41:41.105321+00:00",
        "meta_object_name": "HYSIS",
        "meta_object_id": "2018-096A",
        "meta_epoch": "2025-12-21T13:49:46.353216",
        "meta_mean_motion": 14.78667028,
        "meta_eccentricity": 0.00010226,
        "meta_inclination": 98.0092,
        "meta_ra_of_asc_node": 58.5113,
        "meta_arg_of_pericenter": 50.7247,
        "meta_mean_anomaly": 309.4054,
        "meta_ephemeris_type": 0,
        "meta_classification_type": "U",
        "meta_norad_cat_id": 43719,
        "meta_element_set_no": 999,
        "meta_rev_at_epoch": 38117,
        "meta_bstar": 0.00011397549,
        "meta_mean_motion_dot": 7.83e-06,
        "meta_mean_motion_ddot": 0,
        "tle_line1": "1 43719U 18096A   25355.57623094  .00000783  00000+0  11398-3 0  9996",
        "tle_line2": "2 43719  98.0092  58.5113 0001022  50.7247 309.4054 14.78667028381171"
      },
      "geometry": {
        "type": "Point",
        "coordinates": [
          -119.03624656674359,
          14.48753397138151
        ]
      }
    }
  ]
}